STARLINK-30791          
1 58177U 23167C   26067.59888936 -.00001971  00000+0 -63840-4 0  9998
2 58177  42.9987 149.0936 0001321 264.8741  95.1960 15.26736371130825
FLOCK 4G-36             
1 62675U 25009BU  26068.70726311  .00013573  00000+0  51122-3 0  9993
2 62675  97.4053 151.0513 0003474 324.2456  35.8550 15.27209548 63701
